start=new Date('2023-02-16T00:00:00.000Z').valueOf();
sats=[{"MEAN_MOTION_DDOT":"0.0000000000000","OBJECT_ID":"2023-015AM","LAUNCH_DATE":"2023-02-02","ELEMENT_SET_NO":"999","INCLINATION":"43.0001","PERIAPSIS":"353.159","APOAPSIS":"356.493","RCS_SIZE":null,"DECAY_DATE":null,"COUNTRY_CODE":"US","MEAN_ELEMENT_THEORY":"SGP4","PERIOD":"91.637","EPOCH":"2023-02-15T18:20:35.499264","OBJECT_NAME":"STARLINK-5696","CLASSIFICATION_TYPE":"U","TLE_LINE2":"2 55484  43.0001 307.7282 0002476 255.0303 105.0290 15.71424806  2278","RA_OF_ASC_NODE":"307.7282","REF_FRAME":"TEME","MEAN_MOTION":"15.71424806","CENTER_NAME":"EARTH","SITE":"AFETR","TLE_LINE1":"1 55484U 23015AM  23046.76429976  .00104727  00000-0  78970-3 0  9997","SEMIMAJOR_AXIS":"6732.961","ARG_OF_PERICENTER":"255.0303","GP_ID":"225555469","ECCENTRICITY":"0.00024760","MEAN_MOTION_DOT":"0.00104727","OBJECT_TYPE":"PAYLOAD","FILE":"3795153","REV_AT_EPOCH":"227","NORAD_CAT_ID":"55484","EPHEMERIS_TYPE":"0","MEAN_ANOMALY":"105.0290","TIME_SYSTEM":"UTC","BSTAR":"0.00078970000000"},{"BSTAR":"0.00078157000000","MEAN_ANOMALY":"95.7545","NORAD_CAT_ID":"55485","EPHEMERIS_TYPE":"0","TIME_SYSTEM":"UTC","REV_AT_EPOCH":"208","FILE":"3794028","OBJECT_TYPE":"PAYLOAD","MEAN_MOTION_DOT":"0.00103624","GP_ID":"225503189","ECCENTRICITY":"0.00018020","ARG_OF_PERICENTER":"264.3118","SEMIMAJOR_AXIS":"6732.961","TLE_LINE1":"1 55485U 23015AN  23046.76493100  .00103624  00000-0  78157-3 0  9990","SITE":"AFETR","CENTER_NAME":"EARTH","MEAN_MOTION":"15.71424665","REF_FRAME":"TEME","RA_OF_ASC_NODE":"307.7337","TLE_LINE2":"2 55485  43.0001 307.7337 0001802 264.3118  95.7545 15.71424665  2089","CLASSIFICATION_TYPE":"U","OBJECT_NAME":"STARLINK-5695","EPOCH":"2023-02-15T18:21:30.038400","PERIOD":"91.637","MEAN_ELEMENT_THEORY":"SGP4","COUNTRY_CODE":"US","DECAY_DATE":null,"RCS_SIZE":null,"APOAPSIS":"356.040","PERIAPSIS":"353.613","INCLINATION":"43.0001","ELEMENT_SET_NO":"999","LAUNCH_DATE":"2023-02-02","OBJECT_ID":"2023-015AN","MEAN_MOTION_DDOT":"0.0000000000000"},{"MEAN_ANOMALY":"94.0628","NORAD_CAT_ID":"55486","EPHEMERIS_TYPE":"0","TIME_SYSTEM":"UTC","BSTAR":"0.00066799000000","FILE":"3795153","OBJECT_TYPE":"PAYLOAD","REV_AT_EPOCH":"227","GP_ID":"225555965","ECCENTRICITY":"0.00018100","MEAN_MOTION_DOT":"0.00088303","TLE_LINE1":"1 55486U 23015AP  23046.76440544  .00088303  00000-0  66799-3 0  9990","ARG_OF_PERICENTER":"266.0033","SEMIMAJOR_AXIS":"6732.987","CENTER_NAME":"EARTH","SITE":"AFETR","MEAN_MOTION":"15.71415820","RA_OF_ASC_NODE":"307.7284","REF_FRAME":"TEME","CLASSIFICATION_TYPE":"U","TLE_LINE2":"2 55486  42.9999 307.7284 0001810 266.0033  94.0628 15.71415820  2277","OBJECT_NAME":"STARLINK-5704","EPOCH":"2023-02-15T18:20:44.630016","PERIOD":"91.637","MEAN_ELEMENT_THEORY":"SGP4","DECAY_DATE":null,"COUNTRY_CODE":"US","RCS_SIZE":null,"APOAPSIS":"356.070","INCLINATION":"42.9999","PERIAPSIS":"353.633","LAUNCH_DATE":"2023-02-02","ELEMENT_SET_NO":"999","MEAN_MOTION_DDOT":"0.0000000000000","OBJECT_ID":"2023-015AP"},{"REV_AT_EPOCH":"227","FILE":"3795153","OBJECT_TYPE":"PAYLOAD","BSTAR":"0.00042043000000","NORAD_CAT_ID":"55487","EPHEMERIS_TYPE":"0","MEAN_ANOMALY":"92.5652","TIME_SYSTEM":"UTC","MEAN_MOTION_DOT":"0.00055161","ECCENTRICITY":"0.00018660","GP_ID":"225554227","SITE":"AFETR","CENTER_NAME":"EARTH","ARG_OF_PERICENTER":"267.5002","SEMIMAJOR_AXIS":"6733.019","TLE_LINE1":"1 55487U 23015AQ  23046.76503644  .00055161  00000-0  42043-3 0  9994","REF_FRAME":"TEME","RA_OF_ASC_NODE":"307.7321","MEAN_MOTION":"15.71404387","EPOCH":"2023-02-15T18:21:39.148416","PERIOD":"91.638","CLASSIFICATION_TYPE":"U","TLE_LINE2":"2 55487  43.0002 307.7321 0001866 267.5002  92.5652 15.71404387  2276","OBJECT_NAME":"STARLINK-5701","COUNTRY_CODE":"US","DECAY_DATE":null,"MEAN_ELEMENT_THEORY":"SGP4","PERIAPSIS":"353.628","INCLINATION":"43.0002","RCS_SIZE":null,"APOAPSIS":"356.141","OBJECT_ID":"2023-015AQ","MEAN_MOTION_DDOT":"0.0000000000000","ELEMENT_SET_NO":"999","LAUNCH_DATE":"2023-02-02"},{"MEAN_MOTION_DOT":"0.00055980","ECCENTRICITY":"0.00021680","GP_ID":"225554976","REV_AT_EPOCH":"227","FILE":"3795153","OBJECT_TYPE":"PAYLOAD","BSTAR":"0.00042641000000","MEAN_ANOMALY":"74.7237","NORAD_CAT_ID":"55488","EPHEMERIS_TYPE":"0","TIME_SYSTEM":"UTC","REF_FRAME":"TEME","RA_OF_ASC_NODE":"307.7238","MEAN_MOTION":"15.71413317","SITE":"AFETR","CENTER_NAME":"EARTH","ARG_OF_PERICENTER":"285.3392","SEMIMAJOR_AXIS":"6732.994","TLE_LINE1":"1 55488U 23015AR  23046.76377306  .00055980  00000-0  42641-3 0  9992","COUNTRY_CODE":"US","DECAY_DATE":null,"MEAN_ELEMENT_THEORY":"SGP4","EPOCH":"2023-02-15T18:19:49.992384","PERIOD":"91.637","TLE_LINE2":"2 55488  42.9996 307.7238 0002168 285.3392  74.7237 15.71413317  2274","CLASSIFICATION_TYPE":"U","OBJECT_NAME":"STARLINK-5706","OBJECT_ID":"2023-015AR","MEAN_MOTION_DDOT":"0.0000000000000","ELEMENT_SET_NO":"999","LAUNCH_DATE":"2023-02-02","PERIAPSIS":"353.399","INCLINATION":"42.9996","APOAPSIS":"356.319","RCS_SIZE":null},{"INCLINATION":"43.0002","PERIAPSIS":"353.540","RCS_SIZE":null,"APOAPSIS":"356.120","MEAN_MOTION_DDOT":"0.0000000000000","OBJECT_ID":"2023-015AS","LAUNCH_DATE":"2023-02-02","ELEMENT_SET_NO":"999","PERIOD":"91.637","EPOCH":"2023-02-15T18:20:53.593152","OBJECT_NAME":"STARLINK-5371","CLASSIFICATION_TYPE":"U","TLE_LINE2":"2 55489  43.0002 307.7292 0001916 247.4441 112.6224 15.71423515  2278","DECAY_DATE":null,"COUNTRY_CODE":"US","MEAN_ELEMENT_THEORY":"SGP4","CENTER_NAME":"EARTH","SITE":"AFETR","TLE_LINE1":"1 55489U 23015AS  23046.76450918  .00096964  00000-0  73217-3 0  9994","SEMIMAJOR_AXIS":"6732.965","ARG_OF_PERICENTER":"247.4441","RA_OF_ASC_NODE":"307.7292","REF_FRAME":"TEME","MEAN_MOTION":"15.71423515","OBJECT_TYPE":"PAYLOAD","FILE":"3795153","REV_AT_EPOCH":"227","NORAD_CAT_ID":"55489","EPHEMERIS_TYPE":"0","MEAN_ANOMALY":"112.6224","TIME_SYSTEM":"UTC","BSTAR":"0.00073217000000","GP_ID":"225555716","ECCENTRICITY":"0.00019160","MEAN_MOTION_DOT":"0.00096964"},{"DECAY_DATE":null,"COUNTRY_CODE":"US","MEAN_ELEMENT_THEORY":"SGP4","PERIOD":"91.637","EPOCH":"2023-02-15T18:19:31.947744","OBJECT_NAME":"STARLINK-5373","CLASSIFICATION_TYPE":"U","TLE_LINE2":"2 55490  43.0000 307.7207 0001754 263.4663  96.6005 15.71417360  2277","MEAN_MOTION_DDOT":"0.0000000000000","OBJECT_ID":"2023-015AT","LAUNCH_DATE":"2023-02-02","ELEMENT_SET_NO":"999","INCLINATION":"43.0000","PERIAPSIS":"353.666","APOAPSIS":"356.028","RCS_SIZE":null,"GP_ID":"225555993","ECCENTRICITY":"0.00017540","MEAN_MOTION_DOT":"0.00082710","OBJECT_TYPE":"PAYLOAD","FILE":"3795153","REV_AT_EPOCH":"227","NORAD_CAT_ID":"55490","EPHEMERIS_TYPE":"0","MEAN_ANOMALY":"96.6005","TIME_SYSTEM":"UTC","BSTAR":"0.00062628000000","RA_OF_ASC_NODE":"307.7207","REF_FRAME":"TEME","MEAN_MOTION":"15.71417360","CENTER_NAME":"EARTH","SITE":"AFETR","TLE_LINE1":"1 55490U 23015AT  23046.76356421  .00082710  00000-0  62628-3 0  9998","SEMIMAJOR_AXIS":"6732.982","ARG_OF_PERICENTER":"263.4663"},{"MEAN_MOTION_DDOT":"0.0000000000000","OBJECT_ID":"2023-015AU","LAUNCH_DATE":"2023-02-02","ELEMENT_SET_NO":"999","INCLINATION":"42.9866","PERIAPSIS":"352.926","APOAPSIS":"355.145","RCS_SIZE":null,"DECAY_DATE":null,"COUNTRY_CODE":"US","MEAN_ELEMENT_THEORY":"SGP4","PERIOD":"91.620","EPOCH":"2023-02-15T18:16:50.307168","OBJECT_NAME":"STARLINK-5364","TLE_LINE2":"2 55491  42.9866 307.6983 0001648 303.0122  57.0588 15.71701471  2275","CLASSIFICATION_TYPE":"U","RA_OF_ASC_NODE":"307.6983","REF_FRAME":"TEME","MEAN_MOTION":"15.71701471","CENTER_NAME":"EARTH","SITE":"AFETR","TLE_LINE1":"1 55491U 23015AU  23046.76169337  .00445067  00000-0  31727-2 0  9990","SEMIMAJOR_AXIS":"6732.171","ARG_OF_PERICENTER":"303.0122","ECCENTRICITY":"0.00016480","GP_ID":"225554721","MEAN_MOTION_DOT":"0.00445067","OBJECT_TYPE":"PAYLOAD","FILE":"3795153","REV_AT_EPOCH":"227","NORAD_CAT_ID":"55491","EPHEMERIS_TYPE":"0","MEAN_ANOMALY":"57.0588","TIME_SYSTEM":"UTC","BSTAR":"0.00317270000000"},{"MEAN_MOTION":"15.71413452","REF_FRAME":"TEME","RA_OF_ASC_NODE":"307.7247","ARG_OF_PERICENTER":"265.2299","SEMIMAJOR_AXIS":"6732.994","TLE_LINE1":"1 55492U 23015AV  23046.76387948  .00060978  00000-0  46390-3 0  9998","SITE":"AFETR","CENTER_NAME":"EARTH","MEAN_MOTION_DOT":"0.00060978","ECCENTRICITY":"0.00019960","GP_ID":"225555470","BSTAR":"0.00046390000000","NORAD_CAT_ID":"55492","EPHEMERIS_TYPE":"0","MEAN_ANOMALY":"94.8341","TIME_SYSTEM":"UTC","REV_AT_EPOCH":"227","FILE":"3795153","OBJECT_TYPE":"PAYLOAD","ELEMENT_SET_NO":"999","LAUNCH_DATE":"2023-02-02","OBJECT_ID":"2023-015AV","MEAN_MOTION_DDOT":"0.0000000000000","APOAPSIS":"356.202","RCS_SIZE":null,"PERIAPSIS":"353.515","INCLINATION":"43.0000","MEAN_ELEMENT_THEORY":"SGP4","COUNTRY_CODE":"US","DECAY_DATE":null,"CLASSIFICATION_TYPE":"U","TLE_LINE2":"2 55492  43.0000 307.7247 0001996 265.2299  94.8341 15.71413452  2277","OBJECT_NAME":"STARLINK-5013","EPOCH":"2023-02-15T18:19:59.187072","PERIOD":"91.637"},{"RA_OF_ASC_NODE":"307.7215","REF_FRAME":"TEME","MEAN_MOTION":"15.71421500","CENTER_NAME":"EARTH","SITE":"AFETR","TLE_LINE1":"1 55493U 23015AW  23046.76366787  .00087151  00000-0  65925-3 0  9994","ARG_OF_PERICENTER":"281.7466","SEMIMAJOR_AXIS":"6732.971","GP_ID":"225555223","ECCENTRICITY":"0.00019700","MEAN_MOTION_DOT":"0.00087151","FILE":"3795153","OBJECT_TYPE":"PAYLOAD","REV_AT_EPOCH":"227","NORAD_CAT_ID":"55493","EPHEMERIS_TYPE":"0","MEAN_ANOMALY":"78.3181","TIME_SYSTEM":"UTC","BSTAR":"0.00065925000000","MEAN_MOTION_DDOT":"0.0000000000000","OBJECT_ID":"2023-015AW","LAUNCH_DATE":"2023-02-02","ELEMENT_SET_NO":"999","INCLINATION":"43.0009","PERIAPSIS":"353.509","RCS_SIZE":null,"APOAPSIS":"356.162","DECAY_DATE":null,"COUNTRY_CODE":"US","MEAN_ELEMENT_THEORY":"SGP4","EPOCH":"2023-02-15T18:19:40.903968","PERIOD":"91.637","TLE_LINE2":"2 55493  43.0009 307.7215 0001970 281.7466  78.3181 15.71421500  2275","CLASSIFICATION_TYPE":"U","OBJECT_NAME":"STARLINK-5362"}];
